CCSDS_OMM_VERS = 2.0
CREATION_DATE  = 
ORIGINATOR     = 

OBJECT_NAME    = ALOS (DAICHI)
OBJECT_ID      = 2006-002A
CENTER_NAME    = EARTH
REF_FRAME      = TEME
TIME_SYSTEM    = UTC
MEAN_ELEMENT_THEORY = SGP/SGP4

EPOCH          = 2026-02-02T10:36:19.988928
MEAN_MOTION    = 14.69686909
ECCENTRICITY   = .0002118
INCLINATION    = 98.1163
RA_OF_ASC_NODE = 349.5910
ARG_OF_PERICENTER = 72.0318
MEAN_ANOMALY   = 288.1118

EPHEMERIS_TYPE = 0
CLASSIFICATION_TYPE = U
NORAD_CAT_ID   = 28931
ELEMENT_SET_NO = 999
REV_AT_EPOCH   = 6830
BSTAR          = .2555E-3
MEAN_MOTION_DOT = .1472E-4
MEAN_MOTION_DDOT = 0

CCSDS_OMM_VERS = 2.0
CREATION_DATE  = 
ORIGINATOR     = 

OBJECT_NAME    = H-2A R/B
OBJECT_ID      = 2006-002B
CENTER_NAME    = EARTH
REF_FRAME      = TEME
TIME_SYSTEM    = UTC
MEAN_ELEMENT_THEORY = SGP/SGP4

EPOCH          = 2026-02-02T08:44:07.340640
MEAN_MOTION    = 15.15702228
ECCENTRICITY   = .0053286
INCLINATION    = 98.2351
RA_OF_ASC_NODE = 177.3865
ARG_OF_PERICENTER = 2.6445
MEAN_ANOMALY   = 357.5056

EPHEMERIS_TYPE = 0
CLASSIFICATION_TYPE = U
NORAD_CAT_ID   = 28932
ELEMENT_SET_NO = 999
REV_AT_EPOCH   = 8908
BSTAR          = .38858E-3
MEAN_MOTION_DOT = .7592E-4
MEAN_MOTION_DDOT = 0

CCSDS_OMM_VERS = 2.0
CREATION_DATE  = 
ORIGINATOR     = 

OBJECT_NAME    = RESURS-DK 1
OBJECT_ID      = 2006-021A
CENTER_NAME    = EARTH
REF_FRAME      = TEME
TIME_SYSTEM    = UTC
MEAN_ELEMENT_THEORY = SGP/SGP4

EPOCH          = 2026-02-02T05:20:40.243200
MEAN_MOTION    = 15.12522134
ECCENTRICITY   = .0005024
INCLINATION    = 69.9349
RA_OF_ASC_NODE = 328.7509
ARG_OF_PERICENTER = 210.4605
MEAN_ANOMALY   = 149.6270

EPHEMERIS_TYPE = 0
CLASSIFICATION_TYPE = U
NORAD_CAT_ID   = 29228
ELEMENT_SET_NO = 999
REV_AT_EPOCH   = 8216
BSTAR          = .17481E-3
MEAN_MOTION_DOT = .2946E-4
MEAN_MOTION_DDOT = 0

CCSDS_OMM_VERS = 2.0
CREATION_DATE  = 
ORIGINATOR     = 

OBJECT_NAME    = CZ-4B R/B
OBJECT_ID      = 2006-046C
CENTER_NAME    = EARTH
REF_FRAME      = TEME
TIME_SYSTEM    = UTC
MEAN_ELEMENT_THEORY = SGP/SGP4

EPOCH          = 2026-02-02T02:45:49.735008
MEAN_MOTION    = 15.16506185
ECCENTRICITY   = .00343612
INCLINATION    = 97.5661
RA_OF_ASC_NODE = 78.1166
ARG_OF_PERICENTER = 33.3576
MEAN_ANOMALY   = 326.9812

EPHEMERIS_TYPE = 0
CLASSIFICATION_TYPE = U
NORAD_CAT_ID   = 29507
ELEMENT_SET_NO = 999
REV_AT_EPOCH   = 5465
BSTAR          = .21980545E-3
MEAN_MOTION_DOT = .4276E-4
MEAN_MOTION_DDOT = 0

CCSDS_OMM_VERS = 2.0
CREATION_DATE  = 
ORIGINATOR     = 

OBJECT_NAME    = CZ-2C R/B
OBJECT_ID      = 2007-010B
CENTER_NAME    = EARTH
REF_FRAME      = TEME
TIME_SYSTEM    = UTC
MEAN_ELEMENT_THEORY = SGP/SGP4

EPOCH          = 2026-02-02T06:56:42.667872
MEAN_MOTION    = 14.20233436
ECCENTRICITY   = .0059628
INCLINATION    = 98.3971
RA_OF_ASC_NODE = 148.3466
ARG_OF_PERICENTER = 38.1075
MEAN_ANOMALY   = 322.4297

EPHEMERIS_TYPE = 0
CLASSIFICATION_TYPE = U
NORAD_CAT_ID   = 31114
ELEMENT_SET_NO = 999
REV_AT_EPOCH   = 97469
BSTAR          = .72025E-4
MEAN_MOTION_DOT = .116E-5
MEAN_MOTION_DDOT = 0

CCSDS_OMM_VERS = 2.0
CREATION_DATE  = 
ORIGINATOR     = 

OBJECT_NAME    = COSMO-SKYMED 1
OBJECT_ID      = 2007-023A
CENTER_NAME    = EARTH
REF_FRAME      = TEME
TIME_SYSTEM    = UTC
MEAN_ELEMENT_THEORY = SGP/SGP4

EPOCH          = 2026-02-02T11:47:43.458144
MEAN_MOTION    = 14.96249701
ECCENTRICITY   = .0001371
INCLINATION    = 97.8856
RA_OF_ASC_NODE = 224.2505
ARG_OF_PERICENTER = 77.9159
MEAN_ANOMALY   = 282.2215

EPHEMERIS_TYPE = 0
CLASSIFICATION_TYPE = U
NORAD_CAT_ID   = 31598
ELEMENT_SET_NO = 999
REV_AT_EPOCH   = 964
BSTAR          = .28532E-3
MEAN_MOTION_DOT = .3161E-4
MEAN_MOTION_DDOT = 0

CCSDS_OMM_VERS = 2.0
CREATION_DATE  = 
ORIGINATOR     = 

OBJECT_NAME    = COSMOS 2428
OBJECT_ID      = 2007-029A
CENTER_NAME    = EARTH
REF_FRAME      = TEME
TIME_SYSTEM    = UTC
MEAN_ELEMENT_THEORY = SGP/SGP4

EPOCH          = 2026-02-02T03:17:19.132800
MEAN_MOTION    = 14.12927445
ECCENTRICITY   = .00068484
INCLINATION    = 70.9400
RA_OF_ASC_NODE = 277.9746
ARG_OF_PERICENTER = 316.8493
MEAN_ANOMALY   = 43.2091

EPHEMERIS_TYPE = 0
CLASSIFICATION_TYPE = U
NORAD_CAT_ID   = 31792
ELEMENT_SET_NO = 999
REV_AT_EPOCH   = 95907
BSTAR          = .23496907E-3
MEAN_MOTION_DOT = .39E-5
MEAN_MOTION_DDOT = 0

CCSDS_OMM_VERS = 2.0
CREATION_DATE  = 
ORIGINATOR     = 

OBJECT_NAME    = SL-16 R/B
OBJECT_ID      = 2007-029B
CENTER_NAME    = EARTH
REF_FRAME      = TEME
TIME_SYSTEM    = UTC
MEAN_ELEMENT_THEORY = SGP/SGP4

EPOCH          = 2026-02-02T02:01:25.789728
MEAN_MOTION    = 14.14825131
ECCENTRICITY   = .00018106
INCLINATION    = 70.9730
RA_OF_ASC_NODE = 247.2290
ARG_OF_PERICENTER = 272.9333
MEAN_ANOMALY   = 211.3282

EPHEMERIS_TYPE = 0
CLASSIFICATION_TYPE = U
NORAD_CAT_ID   = 31793
ELEMENT_SET_NO = 999
REV_AT_EPOCH   = 96033
BSTAR          = .18159146E-3
MEAN_MOTION_DOT = .303E-5
MEAN_MOTION_DDOT = 0

CCSDS_OMM_VERS = 2.0
CREATION_DATE  = 
ORIGINATOR     = 

OBJECT_NAME    = KORONAS-FOTON
OBJECT_ID      = 2009-003A
CENTER_NAME    = EARTH
REF_FRAME      = TEME
TIME_SYSTEM    = UTC
MEAN_ELEMENT_THEORY = SGP/SGP4

EPOCH          = 2026-02-02T11:34:04.699776
MEAN_MOTION    = 15.42400390
ECCENTRICITY   = .0009047
INCLINATION    = 82.4330
RA_OF_ASC_NODE = 312.4502
ARG_OF_PERICENTER = 289.1060
MEAN_ANOMALY   = 70.9207

EPHEMERIS_TYPE = 0
CLASSIFICATION_TYPE = U
NORAD_CAT_ID   = 33504
ELEMENT_SET_NO = 999
REV_AT_EPOCH   = 94031
BSTAR          = .22616E-3
MEAN_MOTION_DOT = .9817E-4
MEAN_MOTION_DDOT = 0

CCSDS_OMM_VERS = 2.0
CREATION_DATE  = 
ORIGINATOR     = 

OBJECT_NAME    = CZ-2C R/B
OBJECT_ID      = 2011-030B
CENTER_NAME    = EARTH
REF_FRAME      = TEME
TIME_SYSTEM    = UTC
MEAN_ELEMENT_THEORY = SGP/SGP4

EPOCH          = 2026-02-02T11:49:54.501024
MEAN_MOTION    = 14.81083378
ECCENTRICITY   = .0054162
INCLINATION    = 97.8484
RA_OF_ASC_NODE = 351.4803
ARG_OF_PERICENTER = 104.4029
MEAN_ANOMALY   = 12.0009

EPHEMERIS_TYPE = 0
CLASSIFICATION_TYPE = U
NORAD_CAT_ID   = 37731
ELEMENT_SET_NO = 999
REV_AT_EPOCH   = 78488
BSTAR          = .18877E-3
MEAN_MOTION_DOT = .1448E-4
MEAN_MOTION_DDOT = 0

CCSDS_OMM_VERS = 2.0
CREATION_DATE  = 
ORIGINATOR     = 

OBJECT_NAME    = H-2A R/B
OBJECT_ID      = 2012-025E
CENTER_NAME    = EARTH
REF_FRAME      = TEME
TIME_SYSTEM    = UTC
MEAN_ELEMENT_THEORY = SGP/SGP4

EPOCH          = 2026-02-02T10:57:31.191264
MEAN_MOTION    = 14.94853461
ECCENTRICITY   = .0046454
INCLINATION    = 98.4678
RA_OF_ASC_NODE = 357.7090
ARG_OF_PERICENTER = 68.6799
MEAN_ANOMALY   = 291.9369

EPHEMERIS_TYPE = 0
CLASSIFICATION_TYPE = U
NORAD_CAT_ID   = 38341
ELEMENT_SET_NO = 999
REV_AT_EPOCH   = 74295
BSTAR          = .3304E-3
MEAN_MOTION_DOT = .3608E-4
MEAN_MOTION_DDOT = 0

CCSDS_OMM_VERS = 2.0
CREATION_DATE  = 
ORIGINATOR     = 

OBJECT_NAME    = SHIJIAN-16 (SJ-16)
OBJECT_ID      = 2013-057A
CENTER_NAME    = EARTH
REF_FRAME      = TEME
TIME_SYSTEM    = UTC
MEAN_ELEMENT_THEORY = SGP/SGP4

EPOCH          = 2026-02-02T13:34:56.975808
MEAN_MOTION    = 14.92225306
ECCENTRICITY   = .0017157
INCLINATION    = 74.9708
RA_OF_ASC_NODE = 251.5771
ARG_OF_PERICENTER = 199.6675
MEAN_ANOMALY   = 160.3853

EPHEMERIS_TYPE = 0
CLASSIFICATION_TYPE = U
NORAD_CAT_ID   = 39358
ELEMENT_SET_NO = 999
REV_AT_EPOCH   = 66626
BSTAR          = .18639E-3
MEAN_MOTION_DOT = .1876E-4
MEAN_MOTION_DDOT = 0

