ALOS (DAICHI)           
1 28931U 06002A   26033.44189802  .00001472  00000+0  25550-3 0  9994
2 28931  98.1163 349.5910 0002118  72.0318 288.1118 14.69686909 68301
H-2A R/B                
1 28932U 06002B   26033.36397385  .00007592  00000+0  38858-3 0  9997
2 28932  98.2351 177.3865 0053286   2.6445 357.5056 15.15702228 89085
RESURS-DK 1             
1 29228U 06021A   26033.22268800  .00002946  00000+0  17481-3 0  9998
2 29228  69.9349 328.7509 0005024 210.4605 149.6270 15.12522134 82160
CZ-4B R/B               
1 29507U 06046C   26033.11515897  .00004276  00000+0  21981-3 0  9992
2 29507  97.5661  78.1166 0034361  33.3576 326.9812 15.16506185 54651
CZ-2C R/B               
1 31114U 07010B   26033.28938273  .00000116  00000+0  72025-4 0  9991
2 31114  98.3971 148.3466 0059628  38.1075 322.4297 14.20233436974697
COSMO-SKYMED 1          
1 31598U 07023A   26033.49147521  .00003161  00000+0  28532-3 0  9998
2 31598  97.8856 224.2505 0001371  77.9159 282.2215 14.96249701  9645
COSMOS 2428             
1 31792U 07029A   26033.13702700  .00000390  00000+0  23497-3 0  9993
2 31792  70.9400 277.9746 0006848 316.8493  43.2091 14.12927445959074
SL-16 R/B               
1 31793U 07029B   26033.08432627  .00000303  00000+0  18159-3 0  9999
2 31793  70.9730 247.2290 0001810 272.9333 211.3282 14.14825131960336
KORONAS-FOTON           
1 33504U 09003A   26033.48199884  .00009817  00000+0  22616-3 0  9996
2 33504  82.4330 312.4502 0009047 289.1060  70.9207 15.42400390940310
CZ-2C R/B               
1 37731U 11030B   26033.49299191  .00001448  00000+0  18877-3 0  9994
2 37731  97.8484 351.4803 0054162 104.4029  12.0009 14.81083378784885
H-2A R/B                
1 38341U 12025E   26033.45661101  .00003608  00000+0  33040-3 0  9996
2 38341  98.4678 357.7090 0046454  68.6799 291.9369 14.94853461742953
SHIJIAN-16 (SJ-16)      
1 39358U 13057A   26033.56593722  .00001876  00000+0  18639-3 0  9998
2 39358  74.9708 251.5771 0017157 199.6675 160.3853 14.92225306666263
